NORAD_CAT_ID,OBJECT_NAME,OBJECT_TYPE,EPOCH,MEAN_MOTION,ECCENTRICITY,INCLINATION,RA_OF_ASC_NODE,ARG_OF_PERICENTER,MEAN_ANOMALY,BSTAR,MEAN_MOTION_DOT,MEAN_MOTION_DDOT,TLE_LINE0,TLE_LINE1,TLE_LINE2,SEMIMAJOR_AXIS,PERIOD,APOGEE,PERIGEE,DECAYED
53413.0,STARLINK-4500,PAYLOAD,2024-02-23 21:39:43,15.08841086,0.0001389,53.2172,217.5983,85.1074,275.0076,3.3562e-05,2.46e-06,0.0,0 STARLINK-4500,1 53413U 22097AB  24054.90258262  .00000246  00000-0  33562-4 0  9990,2 53413  53.2172 217.5983 0001389  85.1074 275.0076 15.08841086 86214,6917.877,95.437,540.703,538.781,0.0
53413.0,STARLINK-4500,PAYLOAD,2024-02-24 21:30:30,15.08837487,0.0001352,53.2162,213.1371,85.6397,274.475,3.0961e-05,2.05e-06,0.0,0 STARLINK-4500,1 53413U 22097AB  24055.89618604  .00000205  00000-0  30961-4 0  9994,2 53413  53.2162 213.1371 0001352  85.6397 274.4750 15.08837487 86367,6917.888,95.438,540.688,538.818,0.0
53413.0,STARLINK-4500,PAYLOAD,2024-02-25 03:52:02,15.08837321,0.0001291,53.2163,211.9468,90.1772,269.9369,6.0629e-05,6.77e-06,0.0,0 STARLINK-4500,1 53413U 22097AB  24056.16114523  .00000677  00000-0  60629-4 0  9993,2 53413  53.2163 211.9468 0001291  90.1772 269.9369 15.08837321 85913,6917.889,95.438,540.647,538.86,0.0
53413.0,STARLINK-4500,PAYLOAD,2024-02-25 10:13:35,15.08841234,0.0001281,53.2163,210.757,90.2466,269.8673,3.222e-05,2.25e-06,0.0,0 STARLINK-4500,1 53413U 22097AB  24056.42610437  .00000225  00000-0  32220-4 0  9992,2 53413  53.2163 210.7570 0001281  90.2466 269.8673 15.08841234 86448,6917.877,95.437,540.628,538.855,0.0
53413.0,STARLINK-4500,PAYLOAD,2024-02-25 16:35:07,15.08849544,0.0001236,53.2165,209.567,91.769,268.3444,9.4229e-05,1.212e-05,0.0,0 STARLINK-4500,1 53413U 22097AB  24056.69105571  .00001212  00000-0  94229-4 0  9993,2 53413  53.2165 209.5670 0001236  91.7690 268.3444 15.08849544 85993,6917.851,95.437,540.571,538.861,0.0
53413.0,STARLINK-4500,PAYLOAD,2024-02-26 14:50:31,15.08840156,0.0001477,53.2164,205.4042,109.7468,250.3683,2.6809e-05,1.39e-06,0.0,0 STARLINK-4500,1 53413U 22097AB  24057.61842184  .00000139  00000-0  26809-4 0  9990,2 53413  53.2164 205.4042 0001477 109.7468 250.3683 15.08840156 86627,6917.88,95.438,540.767,538.723,0.0
53413.0,STARLINK-4500,PAYLOAD,2024-02-26 16:25:55,15.08845308,0.0001697,53.217,205.1079,98.8513,261.2671,-0.0001085,-2.015e-05,0.0,0 STARLINK-4500,1 53413U 22097AB  24057.68466460 -.00002015  00000-0 -10850-3 0  9991,2 53413  53.2170 205.1079 0001697  98.8513 261.2671 15.08845308 86143,6917.864,95.437,540.903,538.555,0.0
53413.0,STARLINK-4500,PAYLOAD,2024-02-27 09:55:10,15.08809578,0.0001285,53.2185,201.8369,119.8097,240.3023,0.00034205,5.156e-05,0.0,0 STARLINK-4500,1 53413U 22097AB  24058.41331457  .00005156  00000-0  34205-3 0  9997,2 53413  53.2185 201.8369 0001285 119.8097 240.3023 15.08809578 86258,6917.973,95.439,540.727,538.949,0.0
53413.0,STARLINK-4500,PAYLOAD,2024-02-27 14:41:19,15.08840984,0.0001556,53.2174,200.9454,97.1011,263.0158,-6.723e-05,-1.358e-05,0.0,0 STARLINK-4500,1 53413U 22097AB  24058.61202603 -.00001358  00000-0 -67230-4 0  9996,2 53413  53.2174 200.9454 0001556  97.1011 263.0158 15.08840984 86770,6917.877,95.437,540.819,538.666,0.0
53413.0,STARLINK-4500,PAYLOAD,2024-02-27 19:27:28,15.08844128,0.0001371,53.2167,200.0525,85.6974,274.4174,-5.6941e-05,-1.194e-05,0.0,0 STARLINK-4500,1 53413U 22097AB  24058.81074361 -.00001194  00000-0 -56941-4 0  9991,2 53413  53.2167 200.0525 0001371  85.6974 274.4174 15.08844128 86315,6917.868,95.437,540.681,538.784,0.0
53413.0,STARLINK-4500,PAYLOAD,2024-02-28 12:56:43,15.08832534,0.0001311,53.2164,196.7807,89.6634,270.4508,3.0944e-05,2.05e-06,0.0,0 STARLINK-4500,1 53413U 22097AB  24059.53938901  .00000205  00000-0  30944-4 0  9995,2 53413  53.2164 196.7807 0001311  89.6634 270.4508 15.08832534 86424,6917.903,95.438,540.675,538.861,0.0
53413.0,STARLINK-4500,PAYLOAD,2024-02-28 14:32:06,15.08833809,0.0001384,53.2164,196.4834,89.9494,270.1656,3.8328e-05,3.22e-06,0.0,0 STARLINK-4500,1 53413U 22097AB  24059.60562841  .00000322  00000-0  38328-4 0  9993,2 53413  53.2164 196.4834 0001384  89.9494 270.1656 15.08833809 86920,6917.899,95.438,540.722,538.807,0.0
53413.0,STARLINK-4500,PAYLOAD,2024-02-28 16:07:29,15.08835402,0.00013,53.2168,196.1891,87.1025,273.0116,7.8142e-05,9.56e-06,0.0,0 STARLINK-4500,1 53413U 22097AB  24059.67186646  .00000956  00000-0  78142-4 0  9996,2 53413  53.2168 196.1891 0001300  87.1025 273.0116 15.08835402 86937,6917.894,95.438,540.659,538.86,0.0
53413.0,STARLINK-4500,PAYLOAD,2024-02-29 14:22:53,15.08838073,0.0001315,53.2168,192.0251,84.0474,276.0668,4.7442e-05,4.67e-06,0.0,0 STARLINK-4500,1 53413U 22097AB  24060.59922782  .00000467  00000-0  47442-4 0  9994,2 53413  53.2168 192.0251 0001315  84.0474 276.0668 15.08838073 87070,6917.886,95.438,540.661,538.842,0.0
53413.0,STARLINK-4500,PAYLOAD,2024-02-29 17:33:39,15.08842708,0.0001391,53.2178,191.431,85.7122,274.4029,8.1976e-05,1.017e-05,0.0,0 STARLINK-4500,1 53413U 22097AB  24060.73170397  .00001017  00000-0  81976-4 0  9999,2 53413  53.2178 191.4310 0001391  85.7122 274.4029 15.08842708 86603,6917.872,95.437,540.699,538.775,0.0
53413.0,STARLINK-4500,PAYLOAD,2024-03-01 14:13:40,15.08840296,0.000164,53.2182,187.5662,80.2215,279.8962,7.7349e-06,-1.65e-06,0.0,0 STARLINK-4500,1 53413U 22097AB  24061.59282996 -.00000165  00000-0  77349-5 0  9997,2 53413  53.2182 187.5662 0001640  80.2215 279.8962 15.08840296 87228,6917.879,95.438,540.879,538.61,0.0
53413.0,STARLINK-4500,PAYLOAD,2024-03-01 15:49:03,15.08843442,0.0001541,53.2178,187.2685,79.0389,281.0776,3.2762e-05,2.33e-06,0.0,0 STARLINK-4500,1 53413U 22097AB  24061.65906691  .00000233  00000-0  32762-4 0  9993,2 53413  53.2178 187.2685 0001541  79.0389 281.0776 15.08843442 87238,6917.87,95.437,540.801,538.669,0.0
53413.0,STARLINK-4500,PAYLOAD,2024-03-02 14:04:27,15.08842741,0.0001674,53.2183,183.104,76.8575,283.2604,1.1721e-05,-1.02e-06,0.0,0 STARLINK-4500,1 53413U 22097AB  24062.58642819 -.00000102  00000-0  11721-4 0  9993,2 53413  53.2183 183.1040 0001674  76.8575 283.2604 15.08842741 87373,6917.872,95.437,540.895,538.579,0.0
53413.0,STARLINK-4500,PAYLOAD,2024-03-02 15:39:50,15.08844638,0.000173,53.2183,182.8053,80.6547,279.4641,1.9792e-05,2.7e-07,0.0,0 STARLINK-4500,1 53413U 22097AB  24062.65266661  .00000027  00000-0  19792-4 0  9999,2 53413  53.2183 182.8053 0001730  80.6547 279.4641 15.08844638 87384,6917.866,95.437,540.928,538.534,0.0
53413.0,STARLINK-4500,PAYLOAD,2024-03-03 01:12:09,15.08847332,0.0001074,53.2188,181.0188,75.1728,284.9383,-0.00011867,-2.176e-05,0.0,0 STARLINK-4500,1 53413U 22097AB  24063.05010498 -.00002176  00000-0 -11867-3 0  9992,2 53413  53.2188 181.0188 0001074  75.1728 284.9383 15.08847332 86950,6917.858,95.437,540.466,538.98,0.0
53413.0,STARLINK-4500,PAYLOAD,2024-03-03 12:19:51,15.08837229,0.0001563,53.2169,178.9394,82.3801,277.7368,-7.4546e-05,-1.474e-05,0.0,0 STARLINK-4500,1 53413U 22097AB  24063.51379402 -.00001474  00000-0 -74546-4 0  9990,2 53413  53.2169 178.9394 0001563  82.3801 277.7368 15.08837229 87024,6917.889,95.438,540.835,538.673,0.0
53413.0,STARLINK-4500,PAYLOAD,2024-03-03 13:55:15,15.08835511,0.0001683,53.2179,178.6435,78.4925,281.6256,-7.448e-05,-1.473e-05,0.0,0 STARLINK-4500,1 53413U 22097AB  24063.58003622 -.00001473  00000-0 -74480-4 0  9991,2 53413  53.2179 178.6435 0001683  78.4925 281.6256 15.08835511 87521,6917.894,95.438,540.923,538.595,0.0
53413.0,STARLINK-4500,PAYLOAD,2024-03-04 13:45:59,15.08863884,0.0001614,53.2176,174.1829,80.191,279.9264,0.00019749,2.858e-05,0.0,0 STARLINK-4500,1 53413U 22097AB  24064.57360559  .00002858  00000-0  19749-3 0  9998,2 53413  53.2176 174.1829 0001614  80.1910 279.9264 15.08863884 87189,6917.807,95.436,540.789,538.556,0.0
53413.0,STARLINK-4500,PAYLOAD,2024-03-05 13:36:49,15.08822507,0.0001541,53.2183,169.7206,104.9376,255.1787,-0.00011839,-2.171e-05,0.0,0 STARLINK-4500,1 53413U 22097AB  24065.56724244 -.00002171  00000-0 -11839-3 0  9995,2 53413  53.2183 169.7206 0001541 104.9376 255.1787 15.08822507 87820,6917.934,95.439,540.865,538.733,0.0
53413.0,STARLINK-4500,PAYLOAD,2024-03-05 21:33:45,15.08829519,0.0001384,53.2179,168.235,88.7569,271.3582,-8.5359e-05,-1.646e-05,0.0,0 STARLINK-4500,1 53413U 22097AB  24065.89844020 -.00001646  00000-0 -85359-4 0  9991,2 53413  53.2179 168.2350 0001384  88.7569 271.3582 15.08829519 87381,6917.912,95.438,540.735,538.82,0.0
53413.0,STARLINK-4500,PAYLOAD,2024-03-06 11:52:17,15.08784978,0.0001274,53.2174,165.56,103.2349,256.8786,-0.00062934,-0.00010275,0.0,0 STARLINK-4500,1 53413U 22097AB  24066.49464991 -.00010275  00000-0 -62934-3 0  9994,2 53413  53.2174 165.5600 0001274 103.2349 256.8786 15.08784978 87474,6918.049,95.441,540.795,539.032,0.0
53413.0,STARLINK-4500,PAYLOAD,2024-03-06 22:59:54,15.08849633,9.65e-05,53.2173,163.478,90.5082,269.6021,-7.2824e-05,-1.447e-05,0.0,0 STARLINK-4500,1 53413U 22097AB  24066.95827484 -.00001447  00000-0 -72824-4 0  9996,2 53413  53.2173 163.4780 0000965  90.5082 269.6021 15.08849633 87549,6917.851,95.437,540.384,539.048,0.0
53413.0,STARLINK-4500,PAYLOAD,2024-03-07 13:18:22,15.08847847,0.0001467,53.2171,160.8051,95.0887,265.0273,0.00038533,5.851e-05,0.0,0 STARLINK-4500,1 53413U 22097AB  24067.55442681  .00005851  00000-0  38533-3 0  9994,2 53413  53.2171 160.8051 0001467  95.0887 265.0273 15.08847847 88129,6917.856,95.437,540.736,538.707,0.0
53413.0,STARLINK-4500,PAYLOAD,2024-03-08 11:33:47,15.0881396,0.0001162,53.2169,156.6366,75.1874,284.9246,0.00051551,7.92e-05,0.0,0 STARLINK-4500,1 53413U 22097AB  24068.48180456  .00007920  00000-0  51551-3 0  9990,2 53413  53.2169 156.6366 0001162  75.1874 284.9246 15.08813960 87774,6917.96,95.439,540.629,539.021,0.0
53413.0,STARLINK-4500,PAYLOAD,2024-03-08 14:44:34,15.08817459,0.0001436,53.2175,156.0451,89.4355,270.6801,0.00052437,8.062e-05,0.0,0 STARLINK-4500,1 53413U 22097AB  24068.61428390  .00008062  00000-0  52437-3 0  9999,2 53413  53.2175 156.0451 0001436  89.4355 270.6801 15.08817459 88289,6917.949,95.439,540.808,538.821,0.0
